#dP2021  7 25  0  0  0.00000000      97 __u+U IGS14 FIT  IAC
## 2168      0.00000000   900.00000000 59420 0.0000000000000
+  121   C01C02C03C04C05C06C07C08C09C10C11C12C13C14C16C19C20
+        C21C22C23C24C25C26C27C28C29C30C32C33C34C35C36C37C38
+        C39C40C41C42C43C44C45C46E01E02E03E04E05E07E08E09E11
+        E12E13E14E15E18E19E21E24E25E26E27E30E31E33E36G01G02
+        G03G04G05G06G07G08G09G10G12G13G14G15G16G17G18G19G20
+        G21G22G23G24G25G26G27G28G29G30G31G32J01J02J03R01R02
+        R03R04R05R07R08R09R11R12R13R14R15R16R17R18R19R20R21
+        R22R24  0  0  0  0  0  0  0  0  0  0  0  0  0  0  0
++         0  0  0  0  0  0  0  0  0  0  0  0  0  0  0  0  0
++         0  0  0  0  0  0  0  0  0  0  0  0  0  0  0  0  0
++         0  0  0  0  0  0  0  0  0  0  0  0  0  0  0  0  0
++         0  0  0  0  0  0  0  0  0  0  0  0  0  0  0  0  0
++         0  0  0  0  0  0  0  0  0  0  0  0  0  0  0  0  0
++         0  0  0  0  0  0  0  0  0  0  0  0  0  0  0  0  0
++         0  0  0  0  0  0  0  0  0  0  0  0  0  0  0  0  0
++         0  0  0  0  0  0  0  0  0  0  0  0  0  0  0  0  0
%c M  cc GPS ccc cccc cccc cccc cccc ccccc ccccc ccccc ccccc
%c cc cc ccc ccc cccc cccc cccc cccc ccccc ccccc ccccc ccccc
%f  1.2500000  1.025000000  0.00000000000  0.000000000000000
%f  0.0000000  0.000000000  0.00000000000  0.000000000000000
%i    0    0    0    0      0      0      0      0         0
%i    0    0    0    0      0      0      0      0         0
/* INFORMATION & ANALYSIS CENTER (IAC)            FINAL DATA
/* S/V CLOCKS ARE ALIGNED TO GNSS TIME                      
/* G:C1WC2W R:C1PC2P E:C1XC5X C:C2IC6I J:C1CC2S             
/* PCV:IGS14_2163 OL/AL:FES2004  NONE     YN ORB:CoN CLK:CoN
*  2021 07 25  6  0  0.00000000
PC01 -34310.274446  24460.643299     59.090058 999999.999999
PC02   4343.410357  41937.996915    494.919578 999999.999999
PC03 -14808.583345  39433.294072   1285.272003 999999.999999
PC04 -39617.352898  14362.945698    432.323225 999999.999999
PC05  21870.189415  36019.235155    472.130958 999999.999999
PC06 -23946.859703  30534.544891 -16619.564845    612.541180
PC07  -9420.231929  36124.868816 -18742.915191     28.482642
PC08 -10155.249811  18708.439422  36491.030447   -965.336458
PC09 -10784.437965  29806.459545 -27712.858824    292.107271
PC10    165.458287  40985.953886  -8484.846413    -71.147138
PC11  13519.538589   9463.442486  22566.289806    421.836863
PC12  -5289.308865  18354.193003  20361.405003    745.426274
PC13   3834.896002  25026.720188  33865.740453    293.244166
PC14  11035.244626  20196.665980 -15717.574689    720.784276
PC16 -21781.679001  30898.984858 -18775.114515   -954.343950
PC19 -14707.966965 -10663.660489  21212.960501    865.842345
PC20  -6599.647762 -25485.615637   9320.843115   -891.740562
PC21  -5970.020292  25780.644470   8833.036972   -992.719597
PC22 -14581.671589  10801.378104  21192.371305  -1004.551591
PC23  21420.218791  -2251.684249  17755.542626  -1022.121671
PC24  13269.193293  19789.988423 -14541.383819  -1012.151716
PC25  25279.371716  11469.168833   2953.746666   -936.547575
PC26  -4336.489314  15958.319368 -22484.700919    818.053768
PC27  14381.261195 -19278.022765 -14164.869919    514.030436
PC28  25121.989210 -11820.729193   2864.888262   -102.451497
PC29 -21136.221901  -1787.062519 -18143.954922    368.250305
PC30  -4730.787785 -15535.394957 -22701.345027    419.311409
PC32   5768.017270 -25844.007495  -8815.103354   -982.020392
PC33  14762.635489  10637.865385 -21147.627382  -1002.917623
PC34   5496.948612  15172.690265  22754.096622   -676.254922
PC35 -24791.413660  12432.865054  -3245.718418 999999.999999
PC36 -24905.675188 -12324.368577  -2547.497250 999999.999999
PC37   5731.371473 -15354.087062  22609.354081   -919.065423
PC38  -9348.301026  21609.491363  34979.223720    108.117903
PC39 -19191.721285  32350.165272 -19188.521733    -23.297561
PC40  -5246.847245  39984.821396 -12013.022448    127.926201
PC41  14639.606700 -10529.988138 -21248.888625  -1021.929996
PC42   6118.656616  25835.232812  -8520.780156   -979.238328
PC43  20835.643985   2409.990780  18386.769442   -892.875518
PC44 -13911.567910  19805.680660  13902.696107    250.879671
PC45 -21267.119029   2324.653459 -17897.550127 999999.999999
PC46 -14269.847740 -19604.396978  13798.032007    107.366920
PE01  -1954.042984 -24328.354894  16755.004860  -1157.341747
PE02   2084.730350  24391.325796 -16641.919211    235.271935
PE03  -8337.736507  27392.506430  -7470.009779   -456.373399
PE04  -7086.074266 -19161.318969  21430.065293   -820.609735
PE05 -19124.462292  19670.913921  11111.749490   -262.527161
PE07  18637.174630   -599.107612 -22982.981438   -565.742871
PE08   7328.644230  18777.706301 -21667.352764   5964.910817
PE09 -18565.644611    912.176697  23038.748974   5588.920502
PE11 -29046.260882  -2062.820887  -5362.507655 999999.999999
PE12 -16027.180319 -13068.092507 -21191.632128   5094.059888
PE13  28943.211670   2223.661720   5785.052101    419.448897
PE14  11384.828107 -26867.260670 -11103.979704  -1512.104463
PE15  16084.359944  12935.170595  21214.715242    801.644534
PE18 -16402.825494  19351.301432   1024.751502  -1657.596145
PE19  10054.215823 -27321.201154   5363.120481    335.388190
PE21  12891.082588 -10538.952428  24477.912777   -678.165790
PE24 -21032.923354 -10885.247991 -17751.538866  -1026.344356
PE25 -13028.005752  10324.941844 -24479.988106   -541.078803
PE26  24180.365494 -10204.531518 -13699.382839   1539.747589
PE27  20980.327172   9929.676668  18379.312524    -83.130519
PE30  15994.360040  24907.535731    475.404097   2756.471910
PE31 -16662.988761 -24420.077586  -1495.950812   -483.639313
PE33   6210.956802 -16003.976687 -24115.994161   -467.208067
PE36 -24738.031575   9759.927900  12996.337234   -239.117387
PG01 -16176.218689 -13536.135185 -16620.701736    617.894542
PG02  -8973.412138  14231.745613  21221.374130   -621.915764
PG03 -12195.708050 -23371.834717   3599.275565   -231.356487
PG04  -7327.818119 -14309.180158  21140.016051   -202.982015
PG05   5312.438554  24740.696404   7612.877501    -48.969320
PG06 -20209.077541   7628.700243  15548.405012     45.213478
PG07 -25582.629303  -6943.669493   4504.095101    210.221915
PG08   1704.683479 -20895.564838 -16131.924986    -30.072842
PG09 -16068.769352  -3209.646983  20846.852864   -356.709280
PG10  15005.361460  -2540.040613 -21673.273348   -168.883947
PG12  10196.326434  24375.138457   3100.867106    -73.395338
PG13 -10594.494306  21507.168521 -11407.955599    162.223025
PG14 -15168.293498   2873.552467 -21620.713567     39.335758
PG15   1480.037502  21087.139760 -16243.781797   -133.139085
PG16   2033.971500 -22866.766373  12704.775576   -362.661941
PG17 -20505.508429  10163.004915 -13055.258831    479.021797
PG18  26077.985525   5082.761425   1367.454825    338.454151
PG19 -20527.018637  15806.057885  -5771.745488     30.787410
PG20  -2978.395092  19930.425149  17398.540058    520.006275
PG21  -8955.662261 -14508.357619 -19799.636163    133.312435
PG22  -9486.015962 -24525.889519  -4266.727861   -555.054651
PG23  17503.305536   9539.083411 -17605.684077     79.934336
PG24  11894.452368  14809.853576 -18967.762224    186.516593
PG25  16308.861666  16934.766190  12348.357123    179.484109
PG26   8901.828890 -15114.978987  19808.253538    114.676561
PG27  10750.065453 -22768.558329  -8022.769313   -168.137909
PG28 -12224.322880   9348.852148 -21128.082834    531.887109
PG29  14275.408263   5648.653539  21631.710617   -385.648891
PG30 -25420.693278   1754.535867  -7845.850470   -454.691560
PG31  19224.860191  -8605.319433  16363.795418   -130.541724
PG32  19973.829113 -13246.679155 -11140.941522     12.128194
PJ01 -29485.709615  26285.672121  19640.205732   -423.346465
PJ02 -21568.325467  19313.930855 -26126.712853     -1.020204
PJ03 -29080.581291  29745.963056  11614.682553     -0.336084
PR01  10082.419142 -18337.404546 -14595.821957     82.802795
PR02   2119.890699 -24811.201575   5429.260897    487.309382
PR03  -6699.029558 -14953.076771  19574.066681     40.126259
PR04 -11369.062145   3135.672521  22646.231976     97.324764
PR05  -9939.075293  19502.609520  13127.004576     75.956064
PR07   6892.528809  14465.223652 -19825.137273    -41.914311
PR08  11453.610346  -3197.223164 -22508.809335    -60.085643
PR09   8006.872794  17370.353703 -16814.485968      4.659425
PR11  19456.735258   6823.431526  15021.971968     45.025569
PR12   8034.823423  -7590.973073  23020.571044    248.117189
PR13  -7527.613449 -17023.101361  17435.024861    -58.204234
PR14 -19211.618963 -16769.146067    986.928868     66.876432
PR15 -19222.542235  -6642.592077 -15374.001436    102.494932
PR16  -6869.244158   8812.792123 -22946.386812    -18.440097
PR17 -13621.726578  -5281.543387 -20896.280642    444.008382
PR18 -23727.906629   4162.245200  -8449.728516     84.614533
PR19 -21947.618223  10507.934007   7629.204763   -152.824444
PR20  -5464.376337  11910.456261  21892.098733    -53.025602
PR21  14749.510994   4564.235447  20307.506832   -226.437208
PR22  23902.383844  -4565.299729   7474.471162   -124.405246
PR24   4347.936042 -12284.393103 -21922.594822     51.819603
EOF
